{"type": "FeatureCollection", "features": [ {"type": "Feature", "properties": {"norad_id": 66911, "name": "1998-067XX", "group": "stations", "lat": -48.87955685733821, "lon": -41.161017605721554, "alt_km": 407.8429058650936, "timestamp": "2025-12-26T12:57:38.011825+00:00", "meta": {"OBJECT_NAME": "1998-067XX", "OBJECT_ID": "1998-067XX", "EPOCH": "2025-12-26T05:41:53.748960", "MEAN_MOTION": 15.53922498, "ECCENTRICITY": 0.00035122, "INCLINATION": 51.63, "RA_OF_ASC_NODE": 75.1744, "ARG_OF_PERICENTER": 292.0313, "MEAN_ANOMALY": 68.0304, "EPHEMERIS_TYPE": 0, "CLASSIFICATION_TYPE": "U", "NORAD_CAT_ID": 66911, "ELEMENT_SET_NO": 999, "REV_AT_EPOCH": 370, "BSTAR": 0.0011417936, "MEAN_MOTION_DOT": 0.00075265, "MEAN_MOTION_DDOT": 0}, "tle": {"line1": "1 66911U 98067XX  25360.23742765  .00075265  00000+0  11418-2 0  9996", "line2": "2 66911  51.6300  75.1744 0003512 292.0313  68.0304 15.53922498  3708"}}, "geometry": {"type": "Point", "coordinates": [-41.161017605721554, -48.87955685733821]}}, {"type": "Feature", "properties": {"norad_id": 66912, "name": "1998-067XY", "group": "stations", "lat": 4.360648181555746, "lon": -109.63196718494741, "alt_km": 411.1920263083366, "timestamp": "2025-12-26T12:57:38.011835+00:00", "meta": {"OBJECT_NAME": "1998-067XY", "OBJECT_ID": "1998-067XY", "EPOCH": "2025-12-26T06:01:58.635840", "MEAN_MOTION": 15.52460987, "ECCENTRICITY": 0.00038345, "INCLINATION": 51.6312, "RA_OF_ASC_NODE": 75.2679, "ARG_OF_PERICENTER": 300.6282, "MEAN_ANOMALY": 59.433, "EPHEMERIS_TYPE": 0, "CLASSIFICATION_TYPE": "U", "NORAD_CAT_ID": 66912, "ELEMENT_SET_NO": 999, "REV_AT_EPOCH": 370, "BSTAR": 0.00077856856, "MEAN_MOTION_DOT": 0.0004835, "MEAN_MOTION_DDOT": 0}, "tle": {"line1": "1 66912U 98067XY  25360.25137310  .00048350  00000+0  77857-3 0  9998", "line2": "2 66912  51.6312  75.2679 0003834 300.6282  59.4330 15.52460987  3700"}}, "geometry": {"type": "Point", "coordinates": [-109.63196718494741, 4.360648181555746]}}]}